YAOGAN-36 04C           
1 54750U 22171E   26068.78871400  .00016196  00000+0  54592-3 0  9991
2 54750  34.9797  96.6578 0006685 275.3761  84.6192 15.29852307180246
STARLINK-32097          
1 60351U 24136Y   26068.45468995  .00000322  00000+0  23000-4 0  9998
2 60351  53.1604  76.3923 0001183  76.4960 283.6173 15.30191854 89634
